satname,norad_id,inclination_deg,eccentricity,mean_motion_rev_per_day,perigee_km,apogee_km,l1,l2
STARLINK-1522,46027,53.0541,0.000156,15.06403312,546.1210543623747,548.2817599454065,1 46027U 20055A   26034.92515816  .00002166  00000+0  16423-3 0  9996,2 46027  53.0541 278.1920 0001560  89.2214 270.8954 15.06403312303798
STARLINK-1523,46028,53.0539,0.0001327,15.06389913,546.3234754568848,548.1614711691027,1 46028U 20055B   26033.67932389  .00001350  00000+0  10955-3 0  9994,2 46028  53.0539 283.7871 0001327  87.9347 272.1794 15.06389913303625
STARLINK-1526,46029,53.052,9.6e-05,15.06436732,546.4341592819264,547.7638045904587,1 46029U 20055C   26034.93250297  .00003592  00000+0  25964-3 0  9992,2 46029  53.0520 278.1541 0000960 120.0346 240.0739 15.06436732303803
STARLINK-1555,46032,53.0513,0.00013,15.06342206,546.4883755475003,548.2890122279114,1 46032U 20055F   26035.84665354 -.00009300  00000+0 -60721-3 0  9996,2 46032  53.0513 274.0572 0001300 111.7714 248.3414 15.06342206303941
STARLINK-1556,46033,53.0555,0.0001556,15.06382217,546.1884680919638,548.3436535244882,1 46033U 20055G   26035.82821719  .00002518  00000+0  18799-3 0  9994,2 46033  53.0555 274.1365 0001556  88.5637 271.5530 15.06382217303917
STARLINK-1557,46034,53.0525,0.0002479,15.06367655,545.5938739956046,549.027510961535,1 46034U 20055H   26035.83191093 -.00005883  00000+0 -37665-3 0  9994,2 46034  53.0525 274.1206 0002479 109.2269 250.8988 15.06367655303912
STARLINK-1558,46035,53.0539,0.0001453,15.06402683,546.1970829912389,548.2095868925735,1 46035U 20055J   26035.83928189  .00001295  00000+0  10582-3 0  9999,2 46035  53.0539 274.0869 0001453  86.6289 273.4866 15.06402683303943
STARLINK-1560,46036,53.054,0.00017,15.0640616,546.0153724444717,548.3699845351584,1 46036U 20055K   26035.82452549  .00001745  00000+0  13597-3 0  9990,2 46036  53.0540 274.1513 0001700 113.8666 246.2502 15.06406160303949
STARLINK-1567,46038,53.0535,0.0001763,15.06401553,545.9858601094129,548.4277363326646,1 46038U 20055M   26035.83558762  .00000933  00000+0  81521-4 0  9998,2 46038  53.0535 274.1064 0001763  91.6489 268.4702 15.06401553303939
STARLINK-1569,46039,53.0529,0.0004313,15.06396553,544.2352151274208,550.2090299065039,1 46039U 20055N   26035.84297776  .00001123  00000+0  94338-4 0  9997,2 46039  53.0529 274.0721 0004313  29.7169 330.4065 15.06396553303938
STARLINK-1582,46043,53.053,0.0001376,15.06392592,546.2813313986562,548.187193570092,1 46043U 20055S   26035.85033994 -.00000506  00000+0 -15070-4 0  9995,2 46043  53.0530 274.0375 0001376  92.8163 267.2984 15.06392592303937
STARLINK-1591,46045,53.0522,0.0001495,15.06401509,546.1715941564798,548.2422719924689,1 46045U 20055U   26035.80978581  .00002398  00000+0  17985-3 0  9997,2 46045  53.0522 274.2195 0001495  92.8335 267.2825 15.06401509303916
STARLINK-1524,46047,53.0534,0.0001509,15.06417511,546.112862766342,548.2029167640721,1 46047U 20055W   26035.82913286  .00003787  00000+0  27284-3 0  9998,2 46047  53.0534 264.1335 0001509  91.4611 268.6551 15.06417511304072
STARLINK-1527,46048,53.0576,0.0001792,15.06389685,546.0021439811999,548.4842002348842,1 46048U 20055X   26035.82545909  .00000376  00000+0  44174-4 0  9991,2 46048  53.0576 264.1522 0001792  92.2520 267.8674 15.06389685304054
STARLINK-1540,46051,53.0549,0.0001388,15.06396874,546.2598989849685,548.1823784042699,1 46051U 20055AA  26035.59322781 -.00000306  00000+0 -16270-5 0  9992,2 46051  53.0549 265.1930 0001388  92.8441 267.2707 15.06396874304050
STARLINK-1541,46052,53.0532,0.0001673,15.06397873,546.0594649902396,548.3766887989677,1 46052U 20055AB  26035.84387850  .00000279  00000+0  37603-4 0  9998,2 46052  53.0532 264.0671 0001673  89.2171 270.9010 15.06397873304058
STARLINK-1543,46053,53.0532,0.00013,15.06384894,546.3575547082228,548.1581573707927,1 46053U 20055AC  26035.84756679 -.00003902  00000+0 -24331-3 0  9999,2 46053  53.0532 264.0510 0001300  98.4647 261.6489 15.06384894304087
STARLINK-1548,46054,53.0548,0.0001458,15.06416465,546.1513870819708,548.1708040066324,1 46054U 20055AD  26034.06355053  .00002948  00000+0  21659-3 0  9991,2 46054  53.0548 272.0591 0001458  92.9999 267.1157 15.06416465303819
STARLINK-1554,46055,53.0525,0.0001306,15.06403639,546.2959558847542,548.1048540149277,1 46055U 20055AE  26035.84019137  .00002175  00000+0  16484-3 0  9991,2 46055  53.0525 264.0841 0001306  92.0025 268.1114 15.06403639304080
STARLINK-1564,46058,53.0559,0.0001719,15.06396251,546.0325787148831,548.4135174994226,1 46058U 20055AH  26034.39167914  .00000294  00000+0  38666-4 0  9997,2 46058  53.0559 271.0516 0001719  83.8764 276.2421 15.06396251303859
STARLINK-1570,46059,53.0528,0.0001372,15.06391595,546.2871568160581,548.1874795289632,1 46059U 20055AJ  26035.81439491 -.00001100  00000+0 -54980-4 0  9994,2 46059  53.0528 264.2007 0001372  91.5386 268.5760 15.06391595304033
STARLINK-1572,46060,53.0527,0.0001411,15.0639353,546.2542181479048,548.2085571068937,1 46060U 20055AK  26035.81071215 -.00000019  00000+0  17604-4 0  9991,2 46060  53.0527 264.2162 0001411 100.1225 259.9923 15.06393530304046
STARLINK-1573,46061,53.0533,0.000138,15.06399389,546.2577322064917,548.1691289253267,1 46061U 20055AL  26035.80702125  .00001069  00000+0  90675-4 0  9996,2 46061  53.0533 264.2706 0001380  94.5647 265.5500 15.06399389304072
STARLINK-1577,46063,53.057,0.000246,15.0640428,545.4948078674342,548.9020729041031,1 46063U 20055AN  26035.83282372 -.00001694  00000+0 -94839-4 0  9990,2 46063  53.0570 264.1148 0002460  85.4431 274.6839 15.06404280304077
STARLINK-1583,46064,53.0536,0.0001525,15.06403336,546.1452195017446,548.2574476934915,1 46064U 20055AP  26035.33522016  .00001183  00000+0  98270-4 0  9992,2 46064  53.0536 266.3499 0001525  81.4082 278.7079 15.06403336304007
STARLINK-1525,46066,53.0559,0.0001322,15.06392021,546.3204782197763,548.1515468442894,1 46066U 20055AR  26035.86415356 -.00001477  00000+0 -80278-4 0  9997,2 46066  53.0559 243.9770 0001322  92.4310 267.6830 15.06392021304356
STARLINK-1536,46070,53.0545,0.0002734,15.06398001,545.324292621377,549.111076562911,1 46070U 20055AV  26035.84203044 -.00000962  00000+0 -45665-4 0  9998,2 46070  53.0545 244.0755 0002734  96.3826 263.7475 15.06398001304361
STARLINK-1542,46073,53.0538,0.0001196,15.06405286,546.3670874070585,548.0236269068919,1 46073U 20055AY  26035.83467364  .00001387  00000+0  11200-3 0  9994,2 46073  53.0538 244.1080 0001196  89.6429 270.4697 15.06405286304357
